[Satellite]
VERSION=1.1
NAME=ATLANTIC BIRD 4A
NICKNAME=ATLANTIC BIRD 4A
TLE1=1 33750U 09008B   15055.16385126  .00000060  00000-0  00000+0 0  9998
TLE2=2 33750   0.0640 307.8744 0003751 347.7062 290.0501  1.00270295 22173
